NORAD_CAT_ID,OBJECT_NAME,OBJECT_TYPE,EPOCH,MEAN_MOTION,ECCENTRICITY,INCLINATION,RA_OF_ASC_NODE,ARG_OF_PERICENTER,MEAN_ANOMALY,BSTAR,MEAN_MOTION_DOT,MEAN_MOTION_DDOT,TLE_LINE0,TLE_LINE1,TLE_LINE2,SEMIMAJOR_AXIS,PERIOD,APOGEE,PERIGEE,DECAYED
52500.0,STARLINK-3866,PAYLOAD,2022-09-15 23:20:24,15.08855664,0.0001801,53.2129,343.588,46.1755,313.9386,0.00098135,0.00015371,0.0,0 STARLINK-3866,1 52500U 22049BB  22258.97250984  .00015371  00000-0  98135-3 0  9998,2 52500  53.2129 343.5880 0001801  46.1755 313.9386 15.08855664 20851,6917.833000000001,95.437,540.943,538.452,0.0
52500.0,STARLINK-3866,PAYLOAD,2022-09-16 12:03:29,15.08853819,0.0001717,53.2129,341.2092,43.1792,316.9334,0.00042386,6.467e-05,0.0,0 STARLINK-3866,1 52500U 22049BB  22259.50242596  .00006467  00000-0  42386-3 0  9991,2 52500  53.2129 341.2092 0001717  43.1792 316.9334 15.08853819 20772,6917.8380000000025,95.437,540.891,538.515,0.0
52500.0,STARLINK-3866,PAYLOAD,2022-09-17 05:32:44,15.08841031,0.0002083,53.2128,337.9373,48.1473,311.9696,0.00016306,2.308e-05,0.0,0 STARLINK-3866,1 52500U 22049BB  22260.23106952  .00002308  00000-0  16306-3 0  9991,2 52500  53.2128 337.9373 0002083  48.1473 311.9696 15.08841031 21043,6917.877,95.437,541.183,538.3009999999998,0.0
52500.0,STARLINK-3866,PAYLOAD,2022-09-17 11:54:17,15.08832075,0.0001675999999999,53.2131,336.7475,47.1093,313.004,-9.6602e-05,-1.825e-05,0.0,0 STARLINK-3866,1 52500U 22049BB  22260.49603340 -.00001825  00000-0 -96602-4 0  9995,2 52500  53.2131 336.7475 0001676  47.1093 313.0040 15.08832075 21089,6917.905,95.438,540.929,538.61,0.0
52500.0,STARLINK-3866,PAYLOAD,2022-09-17 15:05:03,15.08829775,0.0001717,53.2128,336.1529,49.0326,311.0815,-8.6033e-05,-1.657e-05,0.0,0 STARLINK-3866,1 52500U 22049BB  22260.62851678 -.00001657  00000-0 -86033-4 0  9999,2 52500  53.2128 336.1529 0001717  49.0326 311.0815 15.08829775 20940,6917.9119999999975,95.438,540.964,538.589,0.0
52500.0,STARLINK-3866,PAYLOAD,2022-09-18 10:09:40,15.08842774,0.000165,53.2138,332.584,48.1596,311.9537,9.5343e-05,1.23e-05,0.0,0 STARLINK-3866,1 52500U 22049BB  22261.42338949  .00001230  00000-0  95343-4 0  9998,2 52500  53.2138 332.5840 0001650  48.1596 311.9537 15.08842774 21060,6917.871999999999,95.437,540.878,538.595,0.0
52500.0,STARLINK-3866,PAYLOAD,2022-09-19 11:35:50,15.0884461,0.0001843,53.2131,327.8267,40.4011,319.7117,0.00023198,3.406e-05,0.0,0 STARLINK-3866,1 52500U 22049BB  22262.48322842  .00003406  00000-0  23198-3 0  9995,2 52500  53.2131 327.8267 0001843  40.4011 319.7117 15.08844610 21380,6917.866,95.437,541.006,538.456,0.0
52500.0,STARLINK-3866,PAYLOAD,2022-09-20 01:54:17,15.08873397,0.000176,53.2132,325.1504,34.9333,325.1775,-0.00057928,-9.504e-05,0.0,0 STARLINK-3866,1 52500U 22049BB  22263.07937369 -.00009504  00000-0 -57928-3 0  9992,2 52500  53.2132 325.1504 0001760  34.9333 325.1775 15.08873397 21474,6917.778,95.435,540.861,538.4259999999998,0.0
52500.0,STARLINK-3866,PAYLOAD,2022-09-20 06:40:28,15.08840558,0.0001966,53.2132,324.2582,39.6922,320.4213,0.00018852,2.713e-05,0.0,0 STARLINK-3866,1 52500U 22049BB  22263.27810662  .00002713  00000-0  18852-3 0  9996,2 52500  53.2132 324.2582 0001966  39.6922 320.4213 15.08840558 21506,6917.879,95.438,541.104,538.384,0.0
52500.0,STARLINK-3866,PAYLOAD,2022-09-20 13:02:00,15.08845499,0.0001971,53.2132,323.0687,41.0897,319.0244,0.00013858,1.918e-05,0.0,0 STARLINK-3866,1 52500U 22049BB  22263.54306300  .00001918  00000-0  13858-3 0  9992,2 52500  53.2132 323.0687 0001971  41.0897 319.0244 15.08845499 21386,6917.864000000001,95.437,541.092,538.365,0.0
52500.0,STARLINK-3866,PAYLOAD,2022-09-21 20:49:43,15.08848237,0.0001940999999999,53.2141,317.1222,44.9593,315.1556,7.5635e-05,9.16e-06,0.0,0 STARLINK-3866,1 52500U 22049BB  22264.86785955  .00000916  00000-0  75635-4 0  9994,2 52500  53.2141 317.1222 0001941  44.9593 315.1556 15.08848237 21585,6917.855,95.437,541.063,538.377,0.0
52500.0,STARLINK-3866,PAYLOAD,2022-09-22 00:00:29,15.08845665,0.0002121,53.2141,316.5262,42.8295,317.2862,7.8268e-05,9.58e-06,0.0,0 STARLINK-3866,1 52500U 22049BB  22265.00034097  .00000958  00000-0  78268-4 0  9996,2 52500  53.2141 316.5262 0002121  42.8295 317.2862 15.08845665 21764,6917.863,95.437,541.195,538.261,0.0
52500.0,STARLINK-3866,PAYLOAD,2022-09-22 09:32:48,15.08838185,0.0002026999999999,53.2147,314.7413,40.5375,319.5768,5.4447000000000006e-06,-2.02e-06,0.0,0 STARLINK-3866,1 52500U 22049BB  22265.39778748 -.00000202  00000-0  54447-5 0  9993,2 52500  53.2147 314.7413 0002027  40.5375 319.5768 15.08838185 21665,6917.886,95.438,541.153,538.349,0.0
52500.0,STARLINK-3866,PAYLOAD,2022-09-23 09:23:36,15.08827063,0.0001802,53.215,310.2803,32.0002,328.1099,-1.4896e-05,-5.25e-06,0.0,0 STARLINK-3866,1 52500U 22049BB  22266.39139721 -.00000525  00000-0 -14896-4 0  9998,2 52500  53.2150 310.2803 0001802  32.0002 328.1099 15.08827063 21819,6917.92,95.438,541.0319999999998,538.538,0.0
52500.0,STARLINK-3866,PAYLOAD,2022-09-24 09:14:23,15.08838835,0.0001869,53.2151,305.8193,43.3724,316.7415,0.00011242,1.501e-05,0.0,0 STARLINK-3866,1 52500U 22049BB  22267.38498889  .00001501  00000-0  11242-3 0  9995,2 52500  53.2151 305.8193 0001869  43.3724 316.7415 15.08838835 22120,6917.884,95.438,541.0419999999998,538.456,0.0
52500.0,STARLINK-3866,PAYLOAD,2022-09-25 09:05:10,15.08837479,0.0002034,53.2144,301.3574,34.9448,325.1677,0.0001493,2.089e-05,0.0,0 STARLINK-3866,1 52500U 22049BB  22268.37858983  .00002089  00000-0  14930-3 0  9999,2 52500  53.2144 301.3574 0002034  34.9448 325.1677 15.08837479 22116,6917.888000000001,95.438,541.16,538.346,0.0
52500.0,STARLINK-3866,PAYLOAD,2022-09-26 08:55:57,15.08841574,0.0002017,53.2143,296.8983,36.9755,323.1375,-3.7699e-05,-8.88e-06,0.0,0 STARLINK-3866,1 52500U 22049BB  22269.37219164 -.00000888  00000-0 -37699-4 0  9997,2 52500  53.2143 296.8983 0002017  36.9755 323.1375 15.08841574 22429,6917.876,95.437,541.136,538.345,0.0
52500.0,STARLINK-3866,PAYLOAD,2022-09-26 18:28:15,15.08843938,0.0001909999999999,53.215,295.1161,41.6671,318.4466,-1.6563e-05,-5.52e-06,0.0,0 STARLINK-3866,1 52500U 22049BB  22269.76962876 -.00000552  00000-0 -16563-4 0  9990,2 52500  53.2150 295.1161 0001910  41.6671 318.4466 15.08843938 22321,6917.868,95.437,541.055,538.4119999999998,0.0
52500.0,STARLINK-3866,PAYLOAD,2022-09-27 07:11:21,15.08840096,0.0001899999999999,53.2151,292.7375,44.07100000000001,316.0433,5.5674e-05,5.98e-06,0.0,0 STARLINK-3866,1 52500U 22049BB  22270.29954891  .00000598  00000-0  55674-4 0  9992,2 52500  53.2151 292.7375 0001900  44.0710 316.0433 15.08840096 22401,6917.88,95.438,541.059,538.431,0.0
52500.0,STARLINK-3866,PAYLOAD,2022-09-27 18:19:03,15.08836134,0.0001835,53.2154,290.6573,48.2033,311.9116,-9.1816e-06,-4.34e-06,0.0,0 STARLINK-3866,1 52500U 22049BB  22270.76323562 -.00000434  00000-0 -91816-5 0  9999,2 52500  53.2154 290.6573 0001835  48.2033 311.9116 15.08836134 22637,6917.892,95.438,541.0269999999998,538.488,0.0
52500.0,STARLINK-3866,PAYLOAD,2022-09-28 11:48:17,15.08847229,0.0002073999999999,53.2148,287.3822,40.6393,319.4754,0.00015213,2.134e-05,0.0,0 STARLINK-3866,1 52500U 22049BB  22271.49186569  .00002134  00000-0  15213-3 0  9996,2 52500  53.2148 287.3822 0002074  40.6393 319.4754 15.08847229 22741,6917.858,95.437,541.158,538.289,0.0
52500.0,STARLINK-3866,PAYLOAD,2022-09-29 02:06:46,15.08833044,0.0002092,53.2144,284.7048,40.9229,319.192,7.8538e-05,9.62e-06,0.0,0 STARLINK-3866,1 52500U 22049BB  22272.08803803  .00000962  00000-0  78538-4 0  9996,2 52500  53.2144 284.7048 0002092  40.9229 319.1920 15.08833044 22831,6917.901999999999,95.438,541.214,538.319,0.0
52500.0,STARLINK-3866,PAYLOAD,2022-09-29 08:28:18,15.08836203,0.0002032,53.2151,283.515,40.2353,319.8789,9.6966e-05,1.255e-05,0.0,0 STARLINK-3866,1 52500U 22049BB  22272.35299730  .00001255  00000-0  96966-4 0  9995,2 52500  53.2151 283.5150 0002032  40.2353 319.8789 15.08836203 22712,6917.892,95.438,541.163,538.351,0.0
52500.0,STARLINK-3866,PAYLOAD,2022-09-29 18:00:37,15.0884256,0.0002094,53.2147,281.7298,41.9119,318.2034,0.00012061,1.632e-05,0.0,0 STARLINK-3866,1 52500U 22049BB  22272.75043318  .00001632  00000-0  12061-3 0  9990,2 52500  53.2147 281.7298 0002094  41.9119 318.2034 15.08842560 22939,6917.873000000001,95.437,541.186,538.289,0.0
52500.0,STARLINK-3866,PAYLOAD,2022-09-30 08:19:04,15.08863528,0.0002151999999999,53.2153,279.0548,40.8079,319.3074,3.056e-05,1.98e-06,0.0,0 STARLINK-3866,1 52500U 22049BB  22273.34658021  .00000198  00000-0  30560-4 0  9990,2 52500  53.2153 279.0548 0002152  40.8079 319.3074 15.08863528 22867,6917.808000000001,95.436,541.1619999999998,538.185,0.0
52500.0,STARLINK-3866,PAYLOAD,2022-09-30 17:51:24,15.08845284,0.0002044999999999,53.2151,277.2701,47.9974,312.1192,5.9177e-05,6.54e-06,0.0,0 STARLINK-3866,1 52500U 22049BB  22273.74403023  .00000654  00000-0  59177-4 0  9996,2 52500  53.2151 277.2701 0002045  47.9974 312.1192 15.08845284 22927,6917.864000000001,95.437,541.144,538.315,0.0
52500.0,STARLINK-3866,PAYLOAD,2022-10-01 04:59:06,15.08843976,0.0002153,53.2148,275.1886,41.1491,318.9663,0.00016292,2.306e-05,0.0,0 STARLINK-3866,1 52500U 22049BB  22274.20770941  .00002306  00000-0  16292-3 0  9990,2 52500  53.2148 275.1886 0002153  41.1491 318.9663 15.08843976 23153,6917.868,95.437,541.2230000000002,538.244,0.0
52500.0,STARLINK-3866,PAYLOAD,2022-10-01 06:34:29,15.08842494,0.0002159,53.215,274.8917,38.9598,321.1549,0.00014323,1.992e-05,0.0,0 STARLINK-3866,1 52500U 22049BB  22274.27395054  .00001992  00000-0  14323-3 0  9998,2 52500  53.2150 274.8917 0002159  38.9598 321.1549 15.08842494 23002,6917.873000000001,95.437,541.231,538.244,0.0
52500.0,STARLINK-3866,PAYLOAD,2022-10-01 17:42:11,15.08846941,0.0002249,53.2159,272.8106,39.416,320.6996,0.00012945,1.773e-05,0.0,0 STARLINK-3866,1 52500U 22049BB  22274.73762799  .00001773  00000-0  12945-3 0  9998,2 52500  53.2159 272.8106 0002249  39.4160 320.6996 15.08846941 23078,6917.859,95.437,541.28,538.168,0.0
